{
  "type": "FeatureCollection",
  "features": [
    {
      "type": "Feature",
      "properties": {
        "norad_id": 51444,
        "name": "CSG-2",
        "group": "resource",
        "lat": -54.81169145049403,
        "lon": -28.526749757233926,
        "alt_km": 630.4663698008471,
        "timestamp": "2025-12-07T09:35:09.449887+00:00",
        "meta_object_name": "CSG-2",
        "meta_object_id": "2022-008A",
        "meta_epoch": "2025-12-06T22:48:18.336672",
        "meta_mean_motion": 14.82154393,
        "meta_eccentricity": 0.00014934,
        "meta_inclination": 97.8814,
        "meta_ra_of_asc_node": 162.3607,
        "meta_arg_of_pericenter": 88.3402,
        "meta_mean_anomaly": 271.7982,
        "meta_ephemeris_type": 0,
        "meta_classification_type": "U",
        "meta_norad_cat_id": 51444,
        "meta_element_set_no": 999,
        "meta_rev_at_epoch": 20811,
        "meta_bstar": 0.00011331697,
        "meta_mean_motion_dot": 8.5e-06,
        "meta_mean_motion_ddot": 0,
        "tle_line1": "1 51444U 22008A   25340.95021223  .00000850  00000+0  11332-3 0  9993",
        "tle_line2": "2 51444  97.8814 162.3607 0001493  88.3402 271.7982 14.82154393208112"
      },
      "geometry": {
        "type": "Point",
        "coordinates": [
          -28.526749757233926,
          -54.81169145049403
        ]
      }
    },
    {
      "type": "Feature",
      "properties": {
        "norad_id": 52912,
        "name": "GAOFEN-12 03",
        "group": "resource",
        "lat": -21.139492763423142,
        "lon": 45.81399183823902,
        "alt_km": 636.980896010964,
        "timestamp": "2025-12-07T09:35:09.449897+00:00",
        "meta_object_name": "GAOFEN-12 03",
        "meta_object_id": "2022-069A",
        "meta_epoch": "2025-12-06T22:56:27.901536",
        "meta_mean_motion": 14.79588063,
        "meta_eccentricity": 0.00023055,
        "meta_inclination": 97.8489,
        "meta_ra_of_asc_node": 228.4383,
        "meta_arg_of_pericenter": 72.1766,
        "meta_mean_anomaly": 287.9697,
        "meta_ephemeris_type": 0,
        "meta_classification_type": "U",
        "meta_norad_cat_id": 52912,
        "meta_element_set_no": 999,
        "meta_rev_at_epoch": 18618,
        "meta_bstar": 0.00029246904,
        "meta_mean_motion_dot": 2.14e-05,
        "meta_mean_motion_ddot": 0,
        "tle_line1": "1 52912U 22069A   25340.95587849  .00002140  00000+0  29247-3 0  9990",
        "tle_line2": "2 52912  97.8489 228.4383 0002305  72.1766 287.9697 14.79588063186188"
      },
      "geometry": {
        "type": "Point",
        "coordinates": [
          45.81399183823902,
          -21.139492763423142
        ]
      }
    },
    {
      "type": "Feature",
      "properties": {
        "norad_id": 54754,
        "name": "SWOT",
        "group": "resource",
        "lat": -73.7453879305278,
        "lon": 163.13182516326094,
        "alt_km": 900.50669221518,
        "timestamp": "2025-12-07T09:35:09.449908+00:00",
        "meta_object_name": "SWOT",
        "meta_object_id": "2022-173A",
        "meta_epoch": "2025-12-06T22:03:41.612832",
        "meta_mean_motion": 14.00173395,
        "meta_eccentricity": 3.504e-05,
        "meta_inclination": 77.61,
        "meta_ra_of_asc_node": 294.8472,
        "meta_arg_of_pericenter": 129.5463,
        "meta_mean_anomaly": 230.572,
        "meta_ephemeris_type": 0,
        "meta_classification_type": "U",
        "meta_norad_cat_id": 54754,
        "meta_element_set_no": 999,
        "meta_rev_at_epoch": 15224,
        "meta_bstar": 0.00011884159,
        "meta_mean_motion_dot": 1.73e-06,
        "meta_mean_motion_ddot": 0,
        "tle_line1": "1 54754U 22173A   25340.91923163  .00000173  00000+0  11884-3 0  9993",
        "tle_line2": "2 54754  77.6100 294.8472 0000350 129.5463 230.5720 14.00173395152248"
      },
      "geometry": {
        "type": "Point",
        "coordinates": [
          163.13182516326094,
          -73.7453879305278
        ]
      }
    },
    {
      "type": "Feature",
      "properties": {
        "norad_id": 57654,
        "name": "GAOFEN-12 04",
        "group": "resource",
        "lat": 8.85626824315699,
        "lon": -104.00410539264502,
        "alt_km": 631.6807373715201,
        "timestamp": "2025-12-07T09:35:09.449918+00:00",
        "meta_object_name": "GAOFEN-12 04",
        "meta_object_id": "2023-123A",
        "meta_epoch": "2025-12-06T22:11:05.660448",
        "meta_mean_motion": 14.79673638,
        "meta_eccentricity": 0.00014054,
        "meta_inclination": 97.912,
        "meta_ra_of_asc_node": 256.7698,
        "meta_arg_of_pericenter": 72.7515,
        "meta_mean_anomaly": 287.385,
        "meta_ephemeris_type": 0,
        "meta_classification_type": "U",
        "meta_norad_cat_id": 57654,
        "meta_element_set_no": 999,
        "meta_rev_at_epoch": 12419,
        "meta_bstar": 0.00035471262,
        "meta_mean_motion_dot": 2.611e-05,
        "meta_mean_motion_ddot": 0,
        "tle_line1": "1 57654U 23123A   25340.92437107  .00002611  00000+0  35471-3 0  9997",
        "tle_line2": "2 57654  97.9120 256.7698 0001405  72.7515 287.3850 14.79673638124191"
      },
      "geometry": {
        "type": "Point",
        "coordinates": [
          -104.00410539264502,
          8.85626824315699
        ]
      }
    },
    {
      "type": "Feature",
      "properties": {
        "norad_id": 59065,
        "name": "PARS 1",
        "group": "resource",
        "lat": -48.477760692128975,
        "lon": -39.265861932111264,
        "alt_km": 456.9461997463168,
        "timestamp": "2025-12-07T09:35:09.449929+00:00",
        "meta_object_name": "PARS 1",
        "meta_object_id": "2024-039Q",
        "meta_epoch": "2025-12-06T22:53:16.936800",
        "meta_mean_motion": 15.40784171,
        "meta_eccentricity": 0.00126908,
        "meta_inclination": 97.4632,
        "meta_ra_of_asc_node": 311.7647,
        "meta_arg_of_pericenter": 89.2359,
        "meta_mean_anomaly": 271.0342,
        "meta_ephemeris_type": 0,
        "meta_classification_type": "U",
        "meta_norad_cat_id": 59065,
        "meta_element_set_no": 999,
        "meta_rev_at_epoch": 9899,
        "meta_bstar": 0.00041373036,
        "meta_mean_motion_dot": 0.00016915,
        "meta_mean_motion_ddot": 0,
        "tle_line1": "1 59065U 24039Q   25340.95366825  .00016915  00000+0  41373-3 0  9993",
        "tle_line2": "2 59065  97.4632 311.7647 0012690  89.2359 271.0342 15.40784171 98993"
      },
      "geometry": {
        "type": "Point",
        "coordinates": [
          -39.265861932111264,
          -48.477760692128975
        ]
      }
    },
    {
      "type": "Feature",
      "properties": {
        "norad_id": 59371,
        "name": "RESURS-P 4",
        "group": "resource",
        "lat": -79.81196183258567,
        "lon": 62.701625009957404,
        "alt_km": 478.2801843481375,
        "timestamp": "2025-12-07T09:35:09.449939+00:00",
        "meta_object_name": "RESURS-P 4",
        "meta_object_id": "2024-061A",
        "meta_epoch": "2025-12-06T23:02:12.043968",
        "meta_mean_motion": 15.32016998,
        "meta_eccentricity": 0.00019321,
        "meta_inclination": 97.2542,
        "meta_ra_of_asc_node": 287.4084,
        "meta_arg_of_pericenter": 53.3165,
        "meta_mean_anomaly": 306.8254,
        "meta_ephemeris_type": 0,
        "meta_classification_type": "U",
        "meta_norad_cat_id": 59371,
        "meta_element_set_no": 999,
        "meta_rev_at_epoch": 9432,
        "meta_bstar": 0.00020393607,
        "meta_mean_motion_dot": 6.228e-05,
        "meta_mean_motion_ddot": 0,
        "tle_line1": "1 59371U 24061A   25340.95986162  .00006228  00000+0  20394-3 0  9996",
        "tle_line2": "2 59371  97.2542 287.4084 0001932  53.3165 306.8254 15.32016998 94327"
      },
      "geometry": {
        "type": "Point",
        "coordinates": [
          62.701625009957404,
          -79.81196183258567
        ]
      }
    },
    {
      "type": "Feature",
      "properties": {
        "norad_id": 59625,
        "name": "LEGION 1",
        "group": "resource",
        "lat": 66.30748414948535,
        "lon": 38.55941004936383,
        "alt_km": 510.13260459557205,
        "timestamp": "2025-12-07T09:35:09.449949+00:00",
        "meta_object_name": "LEGION 1",
        "meta_object_id": "2024-081A",
        "meta_epoch": "2025-12-06T22:12:13.383360",
        "meta_mean_motion": 15.16392904,
        "meta_eccentricity": 0.00043863,
        "meta_inclination": 97.5219,
        "meta_ra_of_asc_node": 55.6138,
        "meta_arg_of_pericenter": 342.1215,
        "meta_mean_anomaly": 17.9862,
        "meta_ephemeris_type": 0,
        "meta_classification_type": "U",
        "meta_norad_cat_id": 59625,
        "meta_element_set_no": 999,
        "meta_rev_at_epoch": 8839,
        "meta_bstar": 0.00037268124,
        "meta_mean_motion_dot": 7.174e-05,
        "meta_mean_motion_ddot": 0,
        "tle_line1": "1 59625U 24081A   25340.92515490  .00007174  00000+0  37268-3 0  9998",
        "tle_line2": "2 59625  97.5219  55.6138 0004386 342.1215  17.9862 15.16392904 88390"
      },
      "geometry": {
        "type": "Point",
        "coordinates": [
          38.55941004936383,
          66.30748414948535
        ]
      }
    }
  ]
}